{
  "type": "FeatureCollection",
  "features": [
    {
      "type": "Feature",
      "properties": {
        "norad_id": 30013,
        "name": "FENGYUN 1C DEB",
        "group": "fengyun-1c-debris",
        "lat": 3.8163441921292867,
        "lon": -160.94244582178828,
        "alt_km": 1028.2704438446526,
        "timestamp": "2025-12-24T16:52:41.805163+00:00",
        "meta_object_name": "FENGYUN 1C DEB",
        "meta_object_id": "1999-025MN",
        "meta_epoch": "2025-12-24T07:28:46.034688",
        "meta_mean_motion": 13.87832608,
        "meta_eccentricity": 0.01278599,
        "meta_inclination": 99.5794,
        "meta_ra_of_asc_node": 18.0105,
        "meta_arg_of_pericenter": 13.3122,
        "meta_mean_anomaly": 6.7311,
        "meta_ephemeris_type": 0,
        "meta_classification_type": "U",
        "meta_norad_cat_id": 30013,
        "meta_element_set_no": 999,
        "meta_rev_at_epoch": 95842,
        "meta_bstar": 0.00023713835,
        "meta_mean_motion_dot": 2.53e-06,
        "meta_mean_motion_ddot": 0,
        "tle_line1": "1 30013U 99025MN  25358.31164392  .00000253  00000+0  23714-3 0  9993",
        "tle_line2": "2 30013  99.5794  18.0105 0127859  13.3122   6.7311 13.87832608958423"
      },
      "geometry": {
        "type": "Point",
        "coordinates": [
          -160.94244582178828,
          3.8163441921292867
        ]
      }
    },
    {
      "type": "Feature",
      "properties": {
        "norad_id": 30015,
        "name": "FENGYUN 1C DEB",
        "group": "fengyun-1c-debris",
        "lat": 75.06571195364162,
        "lon": -35.244846262476386,
        "alt_km": 754.7106571611321,
        "timestamp": "2025-12-24T16:52:41.805174+00:00",
        "meta_object_name": "FENGYUN 1C DEB",
        "meta_object_id": "1999-025MQ",
        "meta_epoch": "2025-12-24T06:32:45.308832",
        "meta_mean_motion": 14.30830775,
        "meta_eccentricity": 0.00386858,
        "meta_inclination": 99.2286,
        "meta_ra_of_asc_node": 1.856,
        "meta_arg_of_pericenter": 92.1533,
        "meta_mean_anomaly": 289.8398,
        "meta_ephemeris_type": 0,
        "meta_classification_type": "U",
        "meta_norad_cat_id": 30015,
        "meta_element_set_no": 999,
        "meta_rev_at_epoch": 98338,
        "meta_bstar": 0.00051205632,
        "meta_mean_motion_dot": 1.305e-05,
        "meta_mean_motion_ddot": 0,
        "tle_line1": "1 30015U 99025MQ  25358.27274663  .00001305  00000+0  51206-3 0  9999",
        "tle_line2": "2 30015  99.2286   1.8560 0038685  92.1533 289.8398 14.30830775983386"
      },
      "geometry": {
        "type": "Point",
        "coordinates": [
          -35.244846262476386,
          75.06571195364162
        ]
      }
    },
    {
      "type": "Feature",
      "properties": {
        "norad_id": 30016,
        "name": "FENGYUN 1C DEB",
        "group": "fengyun-1c-debris",
        "lat": 73.43164507768986,
        "lon": -136.27161019337515,
        "alt_km": 631.6432410079951,
        "timestamp": "2025-12-24T16:52:41.805184+00:00",
        "meta_object_name": "FENGYUN 1C DEB",
        "meta_object_id": "1999-025MR",
        "meta_epoch": "2025-12-23T20:04:57.435168",
        "meta_mean_motion": 14.78783543,
        "meta_eccentricity": 0.00460991,
        "meta_inclination": 98.904,
        "meta_ra_of_asc_node": 10.971,
        "meta_arg_of_pericenter": 6.4627,
        "meta_mean_anomaly": 166.8661,
        "meta_ephemeris_type": 0,
        "meta_classification_type": "U",
        "meta_norad_cat_id": 30016,
        "meta_element_set_no": 999,
        "meta_rev_at_epoch": 99617,
        "meta_bstar": 0.0018237324,
        "meta_mean_motion_dot": 0.00013604,
        "meta_mean_motion_ddot": 0,
        "tle_line1": "1 30016U 99025MR  25357.83677587  .00013604  00000+0  18237-2 0  9994",
        "tle_line2": "2 30016  98.9040  10.9710 0046099   6.4627 166.8661 14.78783543996179"
      },
      "geometry": {
        "type": "Point",
        "coordinates": [
          -136.27161019337515,
          73.43164507768986
        ]
      }
    },
    {
      "type": "Feature",
      "properties": {
        "norad_id": 30017,
        "name": "FENGYUN 1C DEB",
        "group": "fengyun-1c-debris",
        "lat": -34.750528944818385,
        "lon": -142.145751996198,
        "alt_km": 657.084680987622,
        "timestamp": "2025-12-24T16:52:41.805194+00:00",
        "meta_object_name": "FENGYUN 1C DEB",
        "meta_object_id": "1999-025MS",
        "meta_epoch": "2025-12-24T02:46:04.411776",
        "meta_mean_motion": 14.61220707,
        "meta_eccentricity": 0.02179747,
        "meta_inclination": 98.753,
        "meta_ra_of_asc_node": 43.3679,
        "meta_arg_of_pericenter": 140.1331,
        "meta_mean_anomaly": 221.6111,
        "meta_ephemeris_type": 0,
        "meta_classification_type": "U",
        "meta_norad_cat_id": 30017,
        "meta_element_set_no": 999,
        "meta_rev_at_epoch": 610,
        "meta_bstar": 0.00014564271,
        "meta_mean_motion_dot": 9.4e-06,
        "meta_mean_motion_ddot": 0,
        "tle_line1": "1 30017U 99025MS  25358.11532884  .00000940  00000+0  14564-3 0  9996",
        "tle_line2": "2 30017  98.7530  43.3679 0217974 140.1331 221.6111 14.61220707  6101"
      },
      "geometry": {
        "type": "Point",
        "coordinates": [
          -142.145751996198,
          -34.750528944818385
        ]
      }
    },
    {
      "type": "Feature",
      "properties": {
        "norad_id": 30018,
        "name": "FENGYUN 1C DEB",
        "group": "fengyun-1c-debris",
        "lat": 41.63798438730118,
        "lon": 74.4052725675859,
        "alt_km": 682.0485082970454,
        "timestamp": "2025-12-24T16:52:41.805204+00:00",
        "meta_object_name": "FENGYUN 1C DEB",
        "meta_object_id": "1999-025MT",
        "meta_epoch": "2025-12-24T05:23:14.266752",
        "meta_mean_motion": 14.73304967,
        "meta_eccentricity": 0.01169787,
        "meta_inclination": 98.7548,
        "meta_ra_of_asc_node": 81.7635,
        "meta_arg_of_pericenter": 159.5397,
        "meta_mean_anomaly": 226.0354,
        "meta_ephemeris_type": 0,
        "meta_classification_type": "U",
        "meta_norad_cat_id": 30018,
        "meta_element_set_no": 999,
        "meta_rev_at_epoch": 606,
        "meta_bstar": 0.00083167511,
        "meta_mean_motion_dot": 5.938e-05,
        "meta_mean_motion_ddot": 0,
        "tle_line1": "1 30018U 99025MT  25358.22447068  .00005938  00000+0  83168-3 0  9996",
        "tle_line2": "2 30018  98.7548  81.7635 0116978 159.5397 226.0354 14.73304967  6064"
      },
      "geometry": {
        "type": "Point",
        "coordinates": [
          74.4052725675859,
          41.63798438730118
        ]
      }
    },
    {
      "type": "Feature",
      "properties": {
        "norad_id": 30020,
        "name": "FENGYUN 1C DEB",
        "group": "fengyun-1c-debris",
        "lat": 61.67608709155095,
        "lon": -14.582982644207343,
        "alt_km": 751.7511789284799,
        "timestamp": "2025-12-24T16:52:41.805215+00:00",
        "meta_object_name": "FENGYUN 1C DEB",
        "meta_object_id": "1999-025MV",
        "meta_epoch": "2025-12-23T22:04:51.938976",
        "meta_mean_motion": 14.04483646,
        "meta_eccentricity": 0.0183861,
        "meta_inclination": 98.847,
        "meta_ra_of_asc_node": 1.4494,
        "meta_arg_of_pericenter": 39.335,
        "meta_mean_anomaly": 24.9298,
        "meta_ephemeris_type": 0,
        "meta_classification_type": "U",
        "meta_norad_cat_id": 30020,
        "meta_element_set_no": 999,
        "meta_rev_at_epoch": 96815,
        "meta_bstar": 0.0003761,
        "meta_mean_motion_dot": 6.55e-06,
        "meta_mean_motion_ddot": 0,
        "tle_line1": "1 30020U 99025MV  25357.92004559  .00000655  00000+0  37610-3 0  9991",
        "tle_line2": "2 30020  98.8470   1.4494 0183861  39.3350  24.9298 14.04483646968158"
      },
      "geometry": {
        "type": "Point",
        "coordinates": [
          -14.582982644207343,
          61.67608709155095
        ]
      }
    },
    {
      "type": "Feature",
      "properties": {
        "norad_id": 30021,
        "name": "FENGYUN 1C DEB",
        "group": "fengyun-1c-debris",
        "lat": -60.74957452900191,
        "lon": 153.79061027038128,
        "alt_km": 832.8871907288194,
        "timestamp": "2025-12-24T16:52:41.805225+00:00",
        "meta_object_name": "FENGYUN 1C DEB",
        "meta_object_id": "1999-025MW",
        "meta_epoch": "2025-12-23T21:14:32.657280",
        "meta_mean_motion": 14.04895234,
        "meta_eccentricity": 0.0071811,
        "meta_inclination": 98.8361,
        "meta_ra_of_asc_node": 349.12,
        "meta_arg_of_pericenter": 255.4999,
        "meta_mean_anomaly": 170.943,
        "meta_ephemeris_type": 0,
        "meta_classification_type": "U",
        "meta_norad_cat_id": 30021,
        "meta_element_set_no": 999,
        "meta_rev_at_epoch": 97088,
        "meta_bstar": -2.6782e-05,
        "meta_mean_motion_dot": -8.8e-07,
        "meta_mean_motion_ddot": 0,
        "tle_line1": "1 30021U 99025MW  25357.88510020 -.00000088  00000+0 -26782-4 0  9993",
        "tle_line2": "2 30021  98.8361 349.1200 0071811 255.4999 170.9430 14.04895234970889"
      },
      "geometry": {
        "type": "Point",
        "coordinates": [
          153.79061027038128,
          -60.74957452900191
        ]
      }
    }
  ]
}